IRIDIUM 921             
1 24873U 97034E   24239.08171197  .00046426  00000+0  97112-3 0  9995
2 24873  86.3747 253.3543 0002631  55.1377 305.0127 15.45282694485951
IRIDIUM 26              
1 24903U 97043A   24239.40697431  .00001039  00000+0  34767-3 0  9997
2 24903  86.3929 234.2801 0002305  84.9156 275.2305 14.36518973414415
IRIDIUM 22              
1 24907U 97043E   24239.37765701  .00000938  00000+0  32018-3 0  9997
2 24907  86.3928 237.5848 0002298  90.8667 269.2792 14.35399701414473
DUMMY MASS 1            
1 24925U 97048A   24239.34655063  .00000843  00000+0  92418-4 0  9994
2 24925  86.3298 271.5634 0009096 106.3678 253.8547 14.86366884461327
DUMMY MASS 2            
1 24926U 97048B   24239.12527224  .00000787  00000+0  86619-4 0  9991
2 24926  86.3300 273.2221 0009717 116.1030 244.1196 14.86123857461070
IRIDIUM 29              
1 24944U 97051A   24239.35847908  .00000775  00000+0  26105-3 0  9994
2 24944  86.3903 267.4763 0002431  96.4334 263.7139 14.35850443410955
IRIDIUM 33              
1 24946U 97051C   24239.17271876  .00000523  00000+0  17887-3 0  9999
2 24946  86.3818 266.8015 0006691 336.3173  23.7714 14.34469321410441
IRIDIUM 28              
1 24948U 97051E   24239.31578776  .00000780  00000+0  25760-3 0  9990
2 24948  86.3908 265.1756 0002090  81.3064 278.8370 14.36805913411492
